[
    {
        "CCSDS_OMM_VERS": "3.0",
        "COMMENT": "GENERATED VIA SPACE-TRACK.ORG API",
        "CREATION_DATE": "2025-05-03T02:26:48",
        "ORIGINATOR": "18 SPCS",
        "OBJECT_NAME": "GALILEO 20 (2C6)",
        "OBJECT_ID": "2017-079B",
        "CENTER_NAME": "EARTH",
        "REF_FRAME": "TEME",
        "TIME_SYSTEM": "UTC",
        "MEAN_ELEMENT_THEORY": "SGP4",
        "EPOCH": "2025-05-02T02:42:28.476576",
        "MEAN_MOTION": "1.70474878",
        "ECCENTRICITY": "0.00024370",
        "INCLINATION": "55.2102",
        "RA_OF_ASC_NODE": "232.8174",
        "ARG_OF_PERICENTER": "274.0377",
        "MEAN_ANOMALY": "85.9396",
        "EPHEMERIS_TYPE": "0",
        "CLASSIFICATION_TYPE": "U",
        "NORAD_CAT_ID": "43056",
        "ELEMENT_SET_NO": "999",
        "REV_AT_EPOCH": "4599",
        "BSTAR": "0.00000000000000",
        "MEAN_MOTION_DOT": "-0.00000019",
        "MEAN_MOTION_DDOT": "0.0000000000000",
        "SEMIMAJOR_AXIS": "29600.218",
        "PERIOD": "844.699",
        "APOAPSIS": "23229.297",
        "PERIAPSIS": "23214.870",
        "OBJECT_TYPE": "PAYLOAD",
        "RCS_SIZE": "LARGE",
        "COUNTRY_CODE": "ESA",
        "LAUNCH_DATE": "2017-12-12",
        "SITE": "FRGUI",
        "DECAY_DATE": null,
        "FILE": "4717276",
        "GP_ID": "286716038",
        "TLE_LINE0": "0 GALILEO 20 (2C6)",
        "TLE_LINE1": "1 43056U 17079B   25122.11282959 -.00000019  00000-0  00000-0 0  9992",
        "TLE_LINE2": "2 43056  55.2102 232.8174 0002437 274.0377  85.9396  1.70474878 45991"
    }
]